{"type":"FeatureCollection","features":[{"type":"Feature","geometry":{"type":"Polygon","coordinates":[[[35.19253,31.78278],[35.19283,31.78276],[35.19314,31.78281],[35.19351,31.78293],[35.19395,31.78306],[35.19447,31.78316],[35.19487,31.78323],[35.19494,31.78301],[35.19505,31.78286],[35.19519,31.78278],[35.19556,31.78269],[35.19652,31.78247],[35.19704,31.78234],[35.19658,31.7818],[35.19527,31.78017],[35.19464,31.77932],[35.19435,31.77869],[35.19403,31.77791],[35.19389,31.77713],[35.19383,31.77605],[35.19394,31.7751],[35.19412,31.77412],[35.19436,31.77289],[35.19487,31.77048],[35.19501,31.7693],[35.19469,31.76834],[35.19429,31.76751],[35.19397,31.76695],[35.19297,31.76726],[35.19188,31.76753],[35.19103,31.76797],[35.19038,31.76856],[35.19007,31.76901],[35.18957,31.77036],[35.1894,31.77081],[35.18914,31.77126],[35.1887,31.77183],[35.18782,31.77262],[35.18731,31.77313],[35.18697,31.77347],[35.18633,31.77407],[35.18585,31.77452],[35.18508,31.77529],[35.18477,31.77562],[35.18448,31.77582],[35.18417,31.77598],[35.18398,31.77607],[35.18367,31.77615],[35.18287,31.7763],[35.18229,31.77637],[35.18178,31.77655],[35.18128,31.77694],[35.18102,31.7774],[35.18021,31.7795],[35.18025,31.77955],[35.18033,31.77967],[35.18045,31.78008],[35.18049,31.78022],[35.18051,31.78033],[35.1805,31.78038],[35.18045,31.78046],[35.18041,31.78052],[35.18092,31.78097],[35.18134,31.78138],[35.18159,31.78167],[35.18184,31.78203],[35.18209,31.78223],[35.18229,31.78231],[35.18248,31.78233],[35.18297,31.78232],[35.18336,31.78234],[35.1837,31.7824],[35.18411,31.78254],[35.18449,31.78275],[35.18485,31.783],[35.185,31.78324],[35.18512,31.78356],[35.1866,31.78356],[35.18769,31.78375],[35.1886,31.7839],[35.18894,31.78395],[35.18954,31.78389],[35.1899,31.78382],[35.19045,31.78369],[35.19094,31.78361],[35.19139,31.78354],[35.19147,31.78352],[35.19154,31.78348],[35.19186,31.78323],[35.1923,31.78294],[35.19253,31.78278]]]},"properties":{}}]}