{"type":"FeatureCollection","features":[{"type":"Feature","geometry":{"type":"Point","coordinates":[35.192472,31.783339]},"properties":{"kind":"tama38","id":1886448,"address":"הרצל 68","status":"הופק הוצא היתר","tier":"granted","units_existing":16,"units_added":10,"placed":true}},{"type":"Feature","geometry":{"type":"Point","coordinates":[35.183541,31.777331]},"properties":{"kind":"tama38","id":1886451,"address":"פרחי חן 3","status":"היתר אושר בועדת רישוי","tier":"approved","units_existing":6,"units_added":0,"placed":true}},{"type":"Feature","geometry":{"type":"Point","coordinates":[35.183541,31.776511]},"properties":{"kind":"tama38","id":1886453,"address":"מגדים 17","status":"הופק הוצא היתר","tier":"granted","units_existing":6,"units_added":4,"placed":true}},{"type":"Feature","geometry":{"type":"Point","coordinates":[35.18599,31.779911]},"properties":{"kind":"tama38","id":1886468,"address":"ארזים 9","status":"הופק הוצא היתר","tier":"granted","units_existing":12,"units_added":4,"placed":true}},{"type":"Feature","geometry":{"type":"Point","coordinates":[35.183119,31.778747]},"properties":{"kind":"tama38","id":1886472,"address":"נוף הרים 16","status":"הופק הוצא היתר","tier":"granted","units_existing":4,"units_added":1,"placed":true}},{"type":"Feature","geometry":{"type":"Point","coordinates":[35.190667,31.780822]},"properties":{"kind":"tama38","id":1886476,"address":"בית הכרם 16","status":"הופק הוצא היתר","tier":"granted","units_existing":15,"units_added":3,"placed":true}},{"type":"Feature","geometry":{"type":"Point","coordinates":[35.186339,31.777981]},"properties":{"kind":"tama38","id":1886484,"address":"הרצל 131","status":"הופק הוצא היתר","tier":"granted","units_existing":4,"units_added":10,"placed":false}},{"type":"Feature","geometry":{"type":"Point","coordinates":[35.182762,31.770261]},"properties":{"kind":"tama38","id":1886491,"address":"הפסגה 9","status":"תכנון - טרם כניסה לרישוי","tier":"planning","units_existing":29,"units_added":18,"placed":true}},{"type":"Feature","geometry":{"type":"Point","coordinates":[35.184745,31.778522]},"properties":{"kind":"tama38","id":1886492,"address":"תרצה 12","status":"הופק הוצא היתר","tier":"granted","units_existing":3,"units_added":3,"placed":true}},{"type":"Feature","geometry":{"type":"Point","coordinates":[35.183277,31.777043]},"properties":{"kind":"tama38","id":1886494,"address":"פרחי חן 7","status":"הופק הוצא היתר","tier":"granted","units_existing":7,"units_added":3,"placed":true}},{"type":"Feature","geometry":{"type":"Point","coordinates":[35.183046,31.772299]},"properties":{"kind":"tama38","id":1886509,"address":"בית וגן 6","status":"הופק הוצא היתר","tier":"granted","units_existing":8,"units_added":6,"placed":true}},{"type":"Feature","geometry":{"type":"Point","coordinates":[35.191826,31.782445]},"properties":{"kind":"tama38","id":1886514,"address":"בית הכרם 2","status":"נפתח תיק היתר","tier":"approved","units_existing":10,"units_added":4,"placed":true}},{"type":"Feature","geometry":{"type":"Point","coordinates":[35.184409,31.76926]},"properties":{"kind":"tama38","id":1886525,"address":"בית וגן 37","status":"הופק הוצא היתר","tier":"granted","units_existing":10,"units_added":5,"placed":true}},{"type":"Feature","geometry":{"type":"Point","coordinates":[35.195987,31.785638]},"properties":{"kind":"tama38","id":1886560,"address":"קרית משה 7","status":"הופק הוצא היתר","tier":"granted","units_existing":18,"units_added":12,"placed":true}},{"type":"Feature","geometry":{"type":"Point","coordinates":[35.183722,31.776619]},"properties":{"kind":"tama38","id":1886604,"address":"מגדים 15","status":"הופק הוצא היתר","tier":"granted","units_existing":6,"units_added":0,"placed":true}},{"type":"Feature","geometry":{"type":"Point","coordinates":[35.183509,31.777926]},"properties":{"kind":"tama38","id":1886612,"address":"יפה נוף 13","status":"היתר אושר בועדת רישוי","tier":"approved","units_existing":0,"units_added":4,"placed":true}},{"type":"Feature","geometry":{"type":"Point","coordinates":[35.183035,31.769792]},"properties":{"kind":"tama38","id":1886621,"address":"החיד\"א 29","status":"נפתח תיק היתר","tier":"approved","units_existing":9,"units_added":6,"placed":true}},{"type":"Feature","geometry":{"type":"Point","coordinates":[35.183162,31.778253]},"properties":{"kind":"tama38","id":1886631,"address":"נוף הרים 10","status":"תכנון - טרם כניסה לרישוי","tier":"planning","units_existing":0,"units_added":0,"placed":true}},{"type":"Feature","geometry":{"type":"Point","coordinates":[35.184324,31.771307]},"properties":{"kind":"tama38","id":1886639,"address":"עוזיאל 12","status":"היתר אושר בועדת רישוי","tier":"approved","units_existing":0,"units_added":0,"placed":true}},{"type":"Feature","geometry":{"type":"Point","coordinates":[35.193294,31.783202]},"properties":{"kind":"tama38","id":1886642,"address":"שדרות הרצל 62","status":"היתר אושר בועדת רישוי","tier":"approved","units_existing":24,"units_added":16,"placed":true}},{"type":"Feature","geometry":{"type":"Point","coordinates":[35.18319,31.778069]},"properties":{"kind":"tama38","id":1886655,"address":"נוף הרים 8","status":"היתר אושר בועדת רישוי","tier":"approved","units_existing":6,"units_added":5,"placed":true}},{"type":"Feature","geometry":{"type":"Point","coordinates":[35.195698,31.785717]},"properties":{"kind":"tama38","id":1886658,"address":"קרית משה 9","status":"הופק הוצא היתר","tier":"granted","units_existing":14,"units_added":10,"placed":true}},{"type":"Feature","geometry":{"type":"Point","coordinates":[35.184707,31.778314]},"properties":{"kind":"tama38","id":1886662,"address":"תרצה 10","status":"הופק הוצא היתר","tier":"granted","units_existing":0,"units_added":0,"placed":false}},{"type":"Feature","geometry":{"type":"Point","coordinates":[35.18313,31.778574]},"properties":{"kind":"tama38","id":1886709,"address":"נוף הרים 14","status":"הופק הוצא היתר","tier":"granted","units_existing":6,"units_added":3,"placed":true}},{"type":"Feature","geometry":{"type":"Point","coordinates":[35.181653,31.769404]},"properties":{"kind":"tama38","id":1886711,"address":"ברגמן 8","status":"תכנון - טרם כניסה לרישוי","tier":"planning","units_existing":6,"units_added":4,"placed":true}},{"type":"Feature","geometry":{"type":"Point","coordinates":[35.183172,31.776736]},"properties":{"kind":"tama38","id":1886728,"address":"מגדים 20","status":"תכנון - טרם כניסה לרישוי","tier":"planning","units_existing":4,"units_added":5,"placed":true}},{"type":"Feature","geometry":{"type":"Point","coordinates":[35.181782,31.769576]},"properties":{"kind":"tama38","id":1886764,"address":"הרב אליעזר ברגמן 6","status":"היתר אושר בועדת רישוי","tier":"approved","units_existing":6,"units_added":5,"placed":true}},{"type":"Feature","geometry":{"type":"Point","coordinates":[35.183679,31.777468]},"properties":{"kind":"tama38","id":1886765,"address":"פרחי חן 1, יפה נוף 11","status":"הופק הוצא היתר","tier":"granted","units_existing":8,"units_added":4,"placed":true}},{"type":"Feature","geometry":{"type":"Point","coordinates":[35.193356,31.781855]},"properties":{"kind":"tama38","id":1886770,"address":"רבי בנימין 2","status":"תכנון - טרם כניסה לרישוי","tier":"planning","units_existing":4,"units_added":6,"placed":true}},{"type":"Feature","geometry":{"type":"Point","coordinates":[35.189587,31.777125]},"properties":{"kind":"tama38","id":1886842,"address":"ברכיהו 3","status":"היתר אושר בועדת רישוי","tier":"approved","units_existing":0,"units_added":7,"placed":true}},{"type":"Feature","geometry":{"type":"Point","coordinates":[35.188805,31.781037]},"properties":{"kind":"tama38","id":1886889,"address":"שדרות הרצל 101","status":"תכנון - טרם כניסה לרישוי","tier":"planning","units_existing":13,"units_added":8,"placed":false}},{"type":"Feature","geometry":{"type":"Point","coordinates":[35.183306,31.778904]},"properties":{"kind":"tama38","id":1886900,"address":"יפה נוף 23","status":"היתר אושר בועדת רישוי","tier":"approved","units_existing":1,"units_added":16,"placed":true}},{"type":"Feature","geometry":{"type":"Point","coordinates":[35.193715,31.784156]},"properties":{"kind":"tama38","id":1886903,"address":"הברון הירש 7","status":"תכנון - טרם כניסה לרישוי","tier":"planning","units_existing":6,"units_added":6,"placed":true}},{"type":"Feature","geometry":{"type":"Point","coordinates":[35.183414,31.778342]},"properties":{"kind":"tama38","id":1886908,"address":"יפה נוף 17","status":"היתר אושר בועדת רישוי","tier":"approved","units_existing":6,"units_added":6,"placed":true}},{"type":"Feature","geometry":{"type":"Point","coordinates":[35.182853,31.772613]},"properties":{"kind":"tama38","id":1886916,"address":"בית וגן 4","status":"תכנון - טרם כניסה לרישוי","tier":"planning","units_existing":0,"units_added":0,"placed":true}},{"type":"Feature","geometry":{"type":"Point","coordinates":[35.184374,31.778993]},"properties":{"kind":"tama38","id":1886920,"address":"הארזים 21","status":"היתר אושר בועדת רישוי","tier":"approved","units_existing":21,"units_added":6,"placed":true}},{"type":"Feature","geometry":{"type":"Point","coordinates":[35.194963,31.783505]},"properties":{"kind":"tama38","id":1886936,"address":"שדרות הרצל 48","status":"תכנון - טרם כניסה לרישוי","tier":"planning","units_existing":12,"units_added":6,"placed":true}},{"type":"Feature","geometry":{"type":"Point","coordinates":[35.189373,31.782636]},"properties":{"kind":"tama38","id":1886949,"address":"שדרות הרצל 84","status":"היתר אושר בועדת רישוי","tier":"approved","units_existing":0,"units_added":0,"placed":true}},{"type":"Feature","geometry":{"type":"Point","coordinates":[35.192688,31.780086]},"properties":{"kind":"tama38","id":1886963,"address":"כרמון 2","status":"תכנון - טרם כניסה לרישוי","tier":"planning","units_existing":0,"units_added":0,"placed":false}},{"type":"Feature","geometry":{"type":"Point","coordinates":[35.195954,31.784924]},"properties":{"kind":"tama38","id":1886966,"address":"פיק 6","status":"תכנון - טרם כניסה לרישוי","tier":"planning","units_existing":12,"units_added":17,"placed":true}},{"type":"Feature","geometry":{"type":"Point","coordinates":[35.193582,31.783214]},"properties":{"kind":"tama38","id":1886969,"address":"שדרות הרצל 60","status":"תכנון - טרם כניסה לרישוי","tier":"planning","units_existing":8,"units_added":6,"placed":true}},{"type":"Feature","geometry":{"type":"Point","coordinates":[35.193846,31.784472]},"properties":{"kind":"tama38","id":1886970,"address":"הברון הירש 16","status":"תכנון - טרם כניסה לרישוי","tier":"planning","units_existing":0,"units_added":0,"placed":true}},{"type":"Feature","geometry":{"type":"Point","coordinates":[35.192949,31.783758]},"properties":{"kind":"tama38","id":1886977,"address":"צעיר 15","status":"הופק הוצא היתר","tier":"granted","units_existing":9,"units_added":6,"placed":true}},{"type":"Feature","geometry":{"type":"Point","coordinates":[35.194557,31.783429]},"properties":{"kind":"tama38","id":1886979,"address":"שדרות הרצל 50","status":"תכנון - טרם כניסה לרישוי","tier":"planning","units_existing":13,"units_added":7,"placed":true}},{"type":"Feature","geometry":{"type":"Point","coordinates":[35.192754,31.784062]},"properties":{"kind":"tama38","id":1886993,"address":"רב צעיר 10","status":"תכנון - טרם כניסה לרישוי","tier":"planning","units_existing":7,"units_added":5,"placed":true}},{"type":"Feature","geometry":{"type":"Point","coordinates":[35.187836,31.777717]},"properties":{"kind":"tama38","id":1887007,"address":"שילר 4","status":"נפתח תיק היתר","tier":"approved","units_existing":12,"units_added":8,"placed":true}},{"type":"Feature","geometry":{"type":"Point","coordinates":[35.182703,31.772785]},"properties":{"kind":"tama38","id":1887021,"address":"בית וגן 2","status":"תכנון - טרם כניסה לרישוי","tier":"planning","units_existing":0,"units_added":0,"placed":true}},{"type":"Feature","geometry":{"type":"Point","coordinates":[35.186992,31.780401]},"properties":{"kind":"tama38","id":1887027,"address":"הארזים 5","status":"תכנון - טרם כניסה לרישוי","tier":"planning","units_existing":0,"units_added":0,"placed":true}},{"type":"Feature","geometry":{"type":"Point","coordinates":[35.186178,31.778376]},"properties":{"kind":"tama38","id":1887048,"address":"הרצל 116","status":"הופק הוצא היתר","tier":"granted","units_existing":0,"units_added":30,"placed":false}},{"type":"Feature","geometry":{"type":"Point","coordinates":[35.183565,31.772477]},"properties":{"kind":"tama38","id":1887068,"address":"עוזיאל 1","status":"תכנון - טרם כניסה לרישוי","tier":"planning","units_existing":7,"units_added":17,"placed":false}},{"type":"Feature","geometry":{"type":"Point","coordinates":[35.194053,31.784238]},"properties":{"kind":"tama38","id":1887081,"address":"הברון הירש 12","status":"תכנון - טרם כניסה לרישוי","tier":"planning","units_existing":6,"units_added":5,"placed":true}},{"type":"Feature","geometry":{"type":"Point","coordinates":[35.185207,31.772004]},"properties":{"kind":"tama38","id":1887097,"address":"זאב חקלאי 15","status":"תכנון - טרם כניסה לרישוי","tier":"planning","units_existing":65,"units_added":39,"placed":true}},{"type":"Feature","geometry":{"type":"Point","coordinates":[35.195064,31.784493]},"properties":{"kind":"tama38","id":1887099,"address":"שושנה פוליאקוב 16","status":"תכנון - טרם כניסה לרישוי","tier":"planning","units_existing":13,"units_added":9,"placed":true}},{"type":"Feature","geometry":{"type":"Point","coordinates":[35.193597,31.785905]},"properties":{"kind":"tama38","id":1887132,"address":null,"status":"תכנון - טרם כניסה לרישוי","tier":"planning","units_existing":0,"units_added":0,"placed":true}},{"type":"Feature","geometry":{"type":"Point","coordinates":[35.192326,31.779876]},"properties":{"kind":"tama38","id":1887154,"address":"החלוץ 21","status":"תכנון - טרם כניסה לרישוי","tier":"planning","units_existing":0,"units_added":0,"placed":true}},{"type":"Feature","geometry":{"type":"Point","coordinates":[35.183315,31.779168]},"properties":{"kind":"tama38","id":1887155,"address":"יפה נוף 25","status":"תכנון - טרם כניסה לרישוי","tier":"planning","units_existing":0,"units_added":0,"placed":true}},{"type":"Feature","geometry":{"type":"Point","coordinates":[35.193261,31.784463]},"properties":{"kind":"tama38","id":1887174,"address":"אליעזר הלוי 8","status":"תכנון - טרם כניסה לרישוי","tier":"planning","units_existing":12,"units_added":10,"placed":true}},{"type":"Feature","geometry":{"type":"Point","coordinates":[35.19113,31.781098]},"properties":{"kind":"tama38","id":1887179,"address":"בית הכרם 12","status":"תכנון - טרם כניסה לרישוי","tier":"planning","units_existing":4,"units_added":4,"placed":true}},{"type":"Feature","geometry":{"type":"Point","coordinates":[35.190308,31.77479]},"properties":{"kind":"tama38","id":1887182,"address":"הבנאי 2","status":"תכנון - טרם כניסה לרישוי","tier":"planning","units_existing":0,"units_added":0,"placed":true}},{"type":"Feature","geometry":{"type":"Point","coordinates":[35.192983,31.782288]},"properties":{"kind":"tama38","id":1887184,"address":"החלוץ 3","status":"תכנון - טרם כניסה לרישוי","tier":"planning","units_existing":13,"units_added":6,"placed":true}},{"type":"Feature","geometry":{"type":"Point","coordinates":[35.194468,31.785268]},"properties":{"kind":"tama38","id":1887187,"address":"שדרות המאירי 2","status":"תכנון - טרם כניסה לרישוי","tier":"planning","units_existing":0,"units_added":0,"placed":true}},{"type":"Feature","geometry":{"type":"Point","coordinates":[35.192392,31.779586]},"properties":{"kind":"tama38","id":1887204,"address":"החלוץ 21 ב","status":"תכנון - טרם כניסה לרישוי","tier":"planning","units_existing":2,"units_added":2,"placed":true}},{"type":"Feature","geometry":{"type":"Point","coordinates":[35.183487,31.769685]},"properties":{"kind":"tama38","id":1887210,"address":"החיד\"א 28","status":"תכנון - טרם כניסה לרישוי","tier":"planning","units_existing":6,"units_added":5,"placed":true}},{"type":"Feature","geometry":{"type":"Point","coordinates":[35.18504,31.778264]},"properties":{"kind":"tama38","id":1887218,"address":"תרצה 6","status":"תכנון - טרם כניסה לרישוי","tier":"planning","units_existing":6,"units_added":6,"placed":true}},{"type":"Feature","geometry":{"type":"Point","coordinates":[35.184616,31.769583]},"properties":{"kind":"tama38","id":1887223,"address":"הרב עוזיאל 26","status":"תכנון - טרם כניסה לרישוי","tier":"planning","units_existing":6,"units_added":5,"placed":true}},{"type":"Feature","geometry":{"type":"Point","coordinates":[35.194365,31.785876]},"properties":{"kind":"tama38","id":1887227,"address":"שדרות המאירי 5","status":"תכנון - טרם כניסה לרישוי","tier":"planning","units_existing":14,"units_added":10,"placed":true}},{"type":"Feature","geometry":{"type":"Point","coordinates":[35.182948,31.776717]},"properties":{"kind":"tama38","id":1887249,"address":"מגדים 22","status":"תכנון - טרם כניסה לרישוי","tier":"planning","units_existing":0,"units_added":16,"placed":true}},{"type":"Feature","geometry":{"type":"Point","coordinates":[35.193703,31.784563]},"properties":{"kind":"tama38","id":1887273,"address":"הברון הירש 18","status":"תכנון - טרם כניסה לרישוי","tier":"planning","units_existing":6,"units_added":5,"placed":true}},{"type":"Feature","geometry":{"type":"Point","coordinates":[35.186353,31.769115]},"properties":{"kind":"tama38","id":1887286,"address":"שחראי 14-18","status":"תכנון - טרם כניסה לרישוי","tier":"planning","units_existing":20,"units_added":28,"placed":true}},{"type":"Feature","geometry":{"type":"Point","coordinates":[35.188676,31.782313]},"properties":{"kind":"tama38","id":1887300,"address":"רחל המשוררת 22","status":"תכנון - טרם כניסה לרישוי","tier":"planning","units_existing":6,"units_added":4,"placed":true}},{"type":"Feature","geometry":{"type":"Point","coordinates":[35.194168,31.784692]},"properties":{"kind":"tama38","id":1887303,"address":"הרב קוסובסקי 10","status":"תכנון - טרם כניסה לרישוי","tier":"planning","units_existing":11,"units_added":11,"placed":true}},{"type":"Feature","geometry":{"type":"Point","coordinates":[35.184292,31.769747]},"properties":{"kind":"tama38","id":1887304,"address":"בית וגן 31","status":"תכנון - טרם כניסה לרישוי","tier":"planning","units_existing":10,"units_added":9,"placed":true}},{"type":"Feature","geometry":{"type":"Point","coordinates":[35.19343,31.784993]},"properties":{"kind":"tama38","id":1887339,"address":"הלוי אליעזר 12","status":"תכנון - טרם כניסה לרישוי","tier":"planning","units_existing":6,"units_added":4,"placed":true}},{"type":"Feature","geometry":{"type":"Point","coordinates":[35.193093,31.778805]},"properties":{"kind":"tama38","id":1887340,"address":"ח.ד. שחר 10","status":"תכנון - טרם כניסה לרישוי","tier":"planning","units_existing":1,"units_added":7,"placed":true}},{"type":"Feature","geometry":{"type":"Point","coordinates":[35.183408,31.776791]},"properties":{"kind":"tama38","id":1887341,"address":"מגדים 16","status":"תכנון - טרם כניסה לרישוי","tier":"planning","units_existing":3,"units_added":9,"placed":true}},{"type":"Feature","geometry":{"type":"Point","coordinates":[35.183467,31.777737]},"properties":{"kind":"tama38","id":1887351,"address":"פרחי חן 2","status":"תכנון - טרם כניסה לרישוי","tier":"planning","units_existing":6,"units_added":2,"placed":true}},{"type":"Feature","geometry":{"type":"Point","coordinates":[35.183214,31.777899]},"properties":{"kind":"tama38","id":1887359,"address":"נוף הרים 6","status":"תכנון - טרם כניסה לרישוי","tier":"planning","units_existing":6,"units_added":5,"placed":true}},{"type":"Feature","geometry":{"type":"Point","coordinates":[35.183552,31.771738]},"properties":{"kind":"tama38","id":1887361,"address":"בית וגן 10","status":"תכנון - טרם כניסה לרישוי","tier":"planning","units_existing":0,"units_added":14,"placed":true}},{"type":"Feature","geometry":{"type":"Point","coordinates":[35.18315,31.778422]},"properties":{"kind":"tama38","id":1887362,"address":"נוף הרים 12","status":"תכנון - טרם כניסה לרישוי","tier":"planning","units_existing":6,"units_added":5,"placed":true}},{"type":"Feature","geometry":{"type":"Point","coordinates":[35.194049,31.785519]},"properties":{"kind":"tama38","id":1887379,"address":"שד המאירי 1","status":"תכנון - טרם כניסה לרישוי","tier":"planning","units_existing":14,"units_added":12,"placed":true}},{"type":"Feature","geometry":{"type":"Point","coordinates":[35.187039,31.777462]},"properties":{"kind":"tama38","id":1887396,"address":"שילר 14","status":"תכנון - טרם כניסה לרישוי","tier":"planning","units_existing":16,"units_added":11,"placed":true}},{"type":"Feature","geometry":{"type":"Point","coordinates":[35.193044,31.784824]},"properties":{"kind":"tama38","id":1887398,"address":"הלוי אליעזר 11","status":"תכנון - טרם כניסה לרישוי","tier":"planning","units_existing":9,"units_added":7,"placed":true}},{"type":"Feature","geometry":{"type":"Point","coordinates":[35.191278,31.780006]},"properties":{"kind":"tama38","id":1887417,"address":"החלוץ 36","status":"תכנון - טרם כניסה לרישוי","tier":"planning","units_existing":0,"units_added":35,"placed":true}},{"type":"Feature","geometry":{"type":"Polygon","coordinates":[[[35.18417,31.77913],[35.1841,31.77911],[35.18409,31.77913],[35.18402,31.77922],[35.18401,31.77926],[35.18399,31.77927],[35.18388,31.77935],[35.18379,31.77942],[35.18369,31.7795],[35.18365,31.77953],[35.18366,31.77953],[35.18366,31.77953],[35.18366,31.77954],[35.18366,31.77954],[35.18366,31.77954],[35.18366,31.77954],[35.18366,31.77955],[35.18366,31.77955],[35.18367,31.77955],[35.18367,31.77955],[35.18367,31.77956],[35.18367,31.77956],[35.18367,31.77956],[35.18367,31.77956],[35.18368,31.77957],[35.18369,31.77958],[35.18369,31.77959],[35.1837,31.77959],[35.1837,31.7796],[35.18371,31.77961],[35.18371,31.77962],[35.18372,31.77963],[35.18373,31.77963],[35.18373,31.77964],[35.18374,31.77965],[35.18374,31.77966],[35.18375,31.77967],[35.18376,31.77967],[35.18376,31.77968],[35.18377,31.77969],[35.18377,31.77969],[35.18377,31.77969],[35.18378,31.7797],[35.18378,31.7797],[35.18378,31.7797],[35.18379,31.77971],[35.18379,31.77971],[35.18379,31.77971],[35.1838,31.77972],[35.1838,31.77972],[35.1838,31.77972],[35.18381,31.77972],[35.18381,31.77973],[35.18381,31.77973],[35.18382,31.77973],[35.18382,31.77974],[35.18382,31.77974],[35.18383,31.77975],[35.18383,31.77975],[35.18384,31.77975],[35.18384,31.77976],[35.18384,31.77976],[35.18385,31.77976],[35.18385,31.77977],[35.18385,31.77977],[35.18386,31.77977],[35.18386,31.77978],[35.18387,31.77978],[35.18387,31.77979],[35.18388,31.77979],[35.18389,31.77979],[35.18389,31.7798],[35.1839,31.7798],[35.18391,31.77981],[35.18391,31.77981],[35.18392,31.77981],[35.18393,31.77982],[35.18393,31.77982],[35.18394,31.77983],[35.18394,31.77983],[35.18395,31.77984],[35.18396,31.77984],[35.18396,31.77984],[35.18398,31.77985],[35.18399,31.77985],[35.18401,31.77986],[35.18402,31.77987],[35.18403,31.77987],[35.18405,31.77988],[35.18406,31.77988],[35.18408,31.77989],[35.18409,31.77989],[35.1841,31.7799],[35.18412,31.7799],[35.18413,31.77991],[35.18415,31.77991],[35.18416,31.77992],[35.18418,31.77992],[35.18419,31.77993],[35.1842,31.77993],[35.18421,31.77994],[35.18422,31.77994],[35.18423,31.77995],[35.18425,31.77995],[35.18426,31.77995],[35.18427,31.77996],[35.18428,31.77996],[35.18429,31.77997],[35.1843,31.77997],[35.18432,31.77998],[35.18433,31.77998],[35.18434,31.77998],[35.18435,31.77999],[35.18436,31.77999],[35.18436,31.77999],[35.18436,31.77999],[35.18437,31.77999],[35.18437,31.78],[35.18437,31.78],[35.18438,31.78],[35.18438,31.78],[35.18439,31.78],[35.18439,31.78],[35.18439,31.78],[35.1844,31.78001],[35.1844,31.78001],[35.18441,31.78001],[35.18441,31.78001],[35.18442,31.78001],[35.18443,31.78002],[35.18444,31.78002],[35.18446,31.78002],[35.18447,31.78003],[35.18448,31.78003],[35.18449,31.78003],[35.1845,31.78003],[35.18451,31.78004],[35.18452,31.78004],[35.18454,31.78004],[35.18455,31.78005],[35.18456,31.78005],[35.18457,31.78005],[35.18458,31.78006],[35.1846,31.78006],[35.18461,31.78007],[35.18463,31.78007],[35.18464,31.78008],[35.18466,31.78008],[35.18467,31.78008],[35.18468,31.78009],[35.1847,31.78009],[35.18471,31.7801],[35.18473,31.7801],[35.18474,31.78011],[35.18476,31.78011],[35.18477,31.78012],[35.18479,31.78012],[35.1848,31.78013],[35.18481,31.78013],[35.18482,31.78013],[35.18483,31.78014],[35.18484,31.78014],[35.18485,31.78015],[35.18486,31.78015],[35.18487,31.78015],[35.18488,31.78016],[35.18489,31.78016],[35.18489,31.78016],[35.1849,31.78017],[35.18491,31.78017],[35.18492,31.78017],[35.18493,31.78018],[35.18494,31.78018],[35.18495,31.78019],[35.18496,31.78019],[35.18497,31.7802],[35.18498,31.7802],[35.18499,31.7802],[35.18499,31.78021],[35.185,31.78021],[35.18501,31.78022],[35.18502,31.78022],[35.18503,31.78023],[35.18504,31.78023],[35.18505,31.78024],[35.18506,31.78024],[35.18507,31.78024],[35.18508,31.78025],[35.18509,31.78026],[35.1851,31.78026],[35.18511,31.78027],[35.18512,31.78028],[35.18514,31.78029],[35.18515,31.7803],[35.18516,31.7803],[35.18517,31.78031],[35.18519,31.78032],[35.1852,31.78033],[35.18521,31.78034],[35.18522,31.78034],[35.18524,31.78035],[35.18525,31.78036],[35.18526,31.78037],[35.18527,31.78038],[35.18529,31.78039],[35.1853,31.7804],[35.18531,31.7804],[35.18533,31.78041],[35.18534,31.78042],[35.18535,31.78043],[35.18537,31.78044],[35.18538,31.78045],[35.18539,31.78046],[35.18541,31.78047],[35.18542,31.78048],[35.18543,31.78049],[35.18544,31.7805],[35.18546,31.78051],[35.18546,31.78051],[35.18546,31.78051],[35.18547,31.78052],[35.18547,31.78052],[35.18547,31.78052],[35.18547,31.78052],[35.18548,31.78052],[35.18548,31.78053],[35.18548,31.78053],[35.18548,31.78053],[35.18549,31.78053],[35.18549,31.78053],[35.18549,31.78054],[35.1855,31.78054],[35.1855,31.78054],[35.18551,31.78055],[35.18552,31.78056],[35.18553,31.78057],[35.18554,31.78058],[35.18556,31.78059],[35.18557,31.7806],[35.18558,31.7806],[35.18559,31.78061],[35.1856,31.78062],[35.18561,31.78063],[35.18562,31.78064],[35.18564,31.78065],[35.18565,31.78066],[35.18566,31.78067],[35.18567,31.78068],[35.18567,31.78068],[35.18567,31.78068],[35.18568,31.78068],[35.18568,31.78068],[35.18568,31.78069],[35.18568,31.78069],[35.18569,31.78069],[35.18569,31.78069],[35.18569,31.78069],[35.18569,31.7807],[35.1857,31.7807],[35.1857,31.7807],[35.1857,31.7807],[35.1857,31.78071],[35.18577,31.78067],[35.18596,31.78058],[35.186,31.78056],[35.18614,31.78049],[35.18614,31.78047],[35.18605,31.78037],[35.18592,31.78018],[35.18579,31.77999],[35.18569,31.77984],[35.18565,31.77979],[35.18562,31.77975],[35.18558,31.77971],[35.18553,31.77967],[35.18548,31.77963],[35.18542,31.77959],[35.1854,31.77957],[35.18539,31.77956],[35.18528,31.7795],[35.18523,31.77947],[35.18518,31.77944],[35.18509,31.77941],[35.18493,31.77936],[35.1848,31.77933],[35.18464,31.77928],[35.18461,31.77927],[35.18434,31.77919],[35.18427,31.77917],[35.18422,31.77915],[35.18417,31.77913]]]},"properties":{"kind":"pinui_binui","id":469572,"address":"רחוב הארזים 8-14","status":"רשויות","tier":"planning","units_existing":154,"units_added":247,"units_planned":401,"buildings_covered":8,"placed":true}},{"type":"Feature","geometry":{"type":"Polygon","coordinates":[[[35.19187,31.784],[35.1922,31.78379],[35.19244,31.78381],[35.19234,31.78362],[35.19227,31.78348],[35.1922,31.78329],[35.19218,31.78325],[35.1922,31.78324],[35.19228,31.78318],[35.19233,31.7831],[35.19215,31.78321],[35.19194,31.78334],[35.19167,31.7835],[35.19165,31.78355],[35.19164,31.78358],[35.19165,31.78361],[35.19173,31.78374],[35.19174,31.78376],[35.19187,31.784]]]},"properties":{"kind":"pinui_binui","id":469578,"address":"פרבשטיין 6 , בזל 1","status":"מיסוי","tier":"planning","units_existing":32,"units_added":98,"units_planned":130,"buildings_covered":5,"placed":true}},{"type":"Feature","geometry":{"type":"Polygon","coordinates":[[[35.18532,31.7784],[35.18538,31.77839],[35.18542,31.77835],[35.18543,31.77834],[35.18546,31.77832],[35.18554,31.77829],[35.18564,31.77824],[35.18571,31.77819],[35.1858,31.77831],[35.18585,31.77837],[35.18587,31.77839],[35.18591,31.77844],[35.18619,31.77826],[35.18606,31.77813],[35.18582,31.7779],[35.1858,31.77791],[35.18572,31.77784],[35.18571,31.77784],[35.1857,31.77783],[35.18568,31.77783],[35.18567,31.77783],[35.18566,31.77783],[35.18564,31.77783],[35.18563,31.77784],[35.18562,31.77784],[35.18553,31.77792],[35.18552,31.77791],[35.18539,31.77801],[35.18529,31.7781],[35.1852,31.77814],[35.18515,31.77816],[35.18532,31.7784]]]},"properties":{"kind":"pinui_binui","id":469604,"address":"הרצל 118-120 , תרצה 2-4","status":"מיסוי","tier":"planning","units_existing":43,"units_added":107,"units_planned":150,"buildings_covered":5,"placed":true}},{"type":"Feature","geometry":{"type":"Polygon","coordinates":[[[35.19675,31.78564],[35.19676,31.78556],[35.19666,31.78546],[35.19676,31.78539],[35.1969,31.78529],[35.19707,31.78517],[35.19716,31.78511],[35.19701,31.78496],[35.19681,31.78475],[35.19618,31.7841],[35.19608,31.78417],[35.19608,31.78417],[35.19597,31.78424],[35.1962,31.78443],[35.19615,31.78448],[35.19611,31.78451],[35.1961,31.78452],[35.19608,31.78455],[35.19606,31.78459],[35.19606,31.78462],[35.19605,31.78466],[35.19605,31.78471],[35.1961,31.7847],[35.19616,31.78533],[35.19625,31.78559],[35.19628,31.78558],[35.19636,31.78557],[35.19637,31.78556],[35.19639,31.78556],[35.19641,31.78561],[35.19642,31.78561],[35.19644,31.78561],[35.19645,31.78561],[35.1965,31.7856],[35.19655,31.78561],[35.19658,31.78561],[35.19665,31.78563],[35.19675,31.78564]]]},"properties":{"kind":"pinui_binui","id":469609,"address":null,"status":null,"tier":"planning","units_existing":0,"units_added":0,"units_planned":0,"buildings_covered":2,"placed":true}},{"type":"Feature","geometry":{"type":"Polygon","coordinates":[[[35.18854,31.78226],[35.18885,31.78214],[35.18881,31.78209],[35.18864,31.7818],[35.18839,31.78187],[35.18839,31.78189],[35.1884,31.78195],[35.1884,31.78202],[35.18839,31.78208],[35.18838,31.78215],[35.18838,31.78215],[35.18838,31.78216],[35.18838,31.78217],[35.18838,31.78217],[35.18838,31.78218],[35.18838,31.78218],[35.18839,31.78219],[35.18839,31.78219],[35.1884,31.7822],[35.18841,31.7822],[35.18848,31.78222],[35.18849,31.78222],[35.1885,31.78223],[35.18851,31.78223],[35.18852,31.78224],[35.18853,31.78225],[35.18854,31.78226]],[[35.18885,31.78214],[35.1891,31.7825],[35.18929,31.78233],[35.1893,31.78232],[35.18931,31.78231],[35.18931,31.78231],[35.18911,31.782],[35.1891,31.782],[35.18885,31.78214]]]},"properties":{"kind":"pinui_binui","id":469616,"address":"הרצל 88 ,רחל המשוררת  20","status":"מיסוי","tier":"planning","units_existing":27,"units_added":145,"units_planned":172,"buildings_covered":3,"placed":true}},{"type":"Feature","geometry":{"type":"Polygon","coordinates":[[[35.18922,31.78175],[35.18924,31.78174],[35.18925,31.78177],[35.18974,31.78157],[35.18973,31.7815],[35.18971,31.78136],[35.18954,31.78143],[35.18953,31.78143],[35.18929,31.78142],[35.18911,31.78139],[35.18909,31.78139],[35.18899,31.78137],[35.18905,31.78146],[35.18905,31.78147],[35.18907,31.78149],[35.18922,31.78175]]]},"properties":{"kind":"pinui_binui","id":469619,"address":"שדרות הרצל 97","status":"מיסוי","tier":"planning","units_existing":28,"units_added":61,"units_planned":89,"buildings_covered":4,"placed":true}},{"type":"Feature","geometry":{"type":"Polygon","coordinates":[[[35.18491,31.77853],[35.18512,31.77878],[35.18514,31.77881],[35.18547,31.7792],[35.18569,31.77906],[35.18536,31.77867],[35.18538,31.77866],[35.18553,31.77857],[35.18556,31.77855],[35.18585,31.77837],[35.18585,31.77837],[35.18583,31.77834],[35.1858,31.77831],[35.18571,31.77819],[35.18564,31.77824],[35.18554,31.77829],[35.18546,31.77832],[35.18546,31.77832],[35.18545,31.77833],[35.18543,31.77834],[35.18543,31.77834],[35.18542,31.77835],[35.18538,31.77839],[35.18538,31.77839],[35.18538,31.77839],[35.18533,31.7784],[35.18532,31.7784],[35.18519,31.77844],[35.18491,31.77853]]]},"properties":{"kind":"pinui_binui","id":469625,"address":"התומר 8-10","status":"מיסוי","tier":"planning","units_existing":70,"units_added":152,"units_planned":222,"buildings_covered":8,"placed":true}},{"type":"Feature","geometry":{"type":"Polygon","coordinates":[[[35.19362,31.78338],[35.19372,31.78339],[35.19375,31.78366],[35.19392,31.78368],[35.19411,31.78372],[35.19417,31.78374],[35.19432,31.78373],[35.19446,31.7836],[35.19436,31.78351],[35.19418,31.78347],[35.19424,31.78327],[35.19406,31.78323],[35.19388,31.78318],[35.19389,31.78315],[35.1937,31.78311],[35.1937,31.78311],[35.19365,31.78326],[35.19362,31.78338]]]},"properties":{"kind":"pinui_binui","id":469646,"address":"הרצל 54-58, רב צעיר   3-5, הברון הירש 3","status":"מיסוי","tier":"planning","units_existing":49,"units_added":168,"units_planned":217,"buildings_covered":6,"placed":true}},{"type":"Feature","geometry":{"type":"Polygon","coordinates":[[[35.19357,31.78099],[35.19358,31.78119],[35.19365,31.78124],[35.19397,31.78132],[35.19453,31.7814],[35.19456,31.7814],[35.1948,31.78139],[35.19481,31.78139],[35.19479,31.78113],[35.19478,31.78113],[35.19432,31.78099],[35.19419,31.781],[35.19384,31.78079],[35.19364,31.78094],[35.19363,31.78094],[35.19357,31.78099]]]},"properties":{"kind":"pinui_binui","id":469658,"address":"כרמון  14-20","status":"מיסוי","tier":"planning","units_existing":88,"units_added":178,"units_planned":266,"buildings_covered":5,"placed":true}},{"type":"Feature","geometry":{"type":"Polygon","coordinates":[[[35.19459,31.78228],[35.19459,31.78229],[35.19456,31.78237],[35.1945,31.78252],[35.1945,31.78252],[35.19453,31.78252],[35.19455,31.78252],[35.19455,31.78252],[35.19466,31.78251],[35.19479,31.78249],[35.19494,31.78247],[35.19498,31.78246],[35.19499,31.78246],[35.19502,31.78245],[35.19505,31.78244],[35.19505,31.78244],[35.19505,31.78244],[35.19506,31.78243],[35.19507,31.78241],[35.19508,31.7824],[35.1951,31.78239],[35.19511,31.78238],[35.19514,31.78236],[35.1953,31.78233],[35.19543,31.7823],[35.19545,31.7823],[35.19548,31.78229],[35.19548,31.78214],[35.19548,31.78214],[35.19537,31.78214],[35.19477,31.78213],[35.19478,31.78227],[35.19459,31.78228],[35.19459,31.78228]]]},"properties":{"kind":"pinui_binui","id":469659,"address":"חזון ציון  7-9","status":"מיסוי","tier":"planning","units_existing":41,"units_added":78,"units_planned":119,"buildings_covered":5,"placed":true}},{"type":"Feature","geometry":{"type":"Polygon","coordinates":[[[35.19489,31.78369],[35.19504,31.7838],[35.19509,31.78384],[35.19517,31.78389],[35.19525,31.78394],[35.19528,31.78396],[35.19538,31.78386],[35.19554,31.78368],[35.19544,31.78361],[35.19533,31.78355],[35.19533,31.78355],[35.1953,31.78354],[35.19523,31.78352],[35.1951,31.78347],[35.19489,31.78368],[35.19488,31.78369],[35.19489,31.78369]]]},"properties":{"kind":"pinui_binui","id":469661,"address":"חיים חביב 1","status":"מיסוי","tier":"planning","units_existing":50,"units_added":160,"units_planned":210,"buildings_covered":3,"placed":true}},{"type":"Feature","geometry":{"type":"Polygon","coordinates":[[[35.18969,31.77409],[35.18918,31.77452],[35.18916,31.77454],[35.18916,31.77457],[35.18916,31.77459],[35.18918,31.77462],[35.18924,31.77467],[35.18927,31.7747],[35.18948,31.77472],[35.18948,31.77471],[35.18969,31.77468],[35.19016,31.77462],[35.1903,31.7746],[35.1904,31.77458],[35.1905,31.77455],[35.19062,31.77451],[35.19072,31.77448],[35.1909,31.77441],[35.19108,31.77435],[35.19107,31.77434],[35.19154,31.77422],[35.1915,31.77412],[35.19146,31.774],[35.19097,31.77413],[35.19089,31.77397],[35.1908,31.77388],[35.19105,31.77369],[35.19106,31.77367],[35.191,31.77366],[35.19091,31.77357],[35.19082,31.77348],[35.19071,31.77344],[35.19068,31.77341],[35.1906,31.77333],[35.19036,31.77353],[35.19018,31.77368],[35.18986,31.77395],[35.18969,31.77409]]]},"properties":{"kind":"pinui_binui","id":469668,"address":"החלוץ  72-78","status":"מיסוי","tier":"planning","units_existing":191,"units_added":325,"units_planned":516,"buildings_covered":21,"placed":true}},{"type":"Feature","geometry":{"type":"Polygon","coordinates":[[[35.18316,31.77305],[35.1831,31.77314],[35.18293,31.77341],[35.18302,31.77354],[35.18313,31.77372],[35.18313,31.77371],[35.18313,31.77371],[35.18314,31.77371],[35.18316,31.7737],[35.18326,31.77366],[35.18327,31.77366],[35.18327,31.77366],[35.18328,31.77366],[35.18328,31.77366],[35.18329,31.77366],[35.1833,31.77367],[35.18331,31.77367],[35.18331,31.77366],[35.18333,31.77366],[35.18335,31.77366],[35.18338,31.77366],[35.18341,31.77367],[35.18342,31.77367],[35.18344,31.77368],[35.18345,31.77369],[35.18346,31.77369],[35.18346,31.77369],[35.18348,31.7737],[35.1835,31.77369],[35.18352,31.77369],[35.18357,31.77371],[35.18361,31.77365],[35.18378,31.77351],[35.18376,31.77352],[35.18374,31.77353],[35.18371,31.77353],[35.18369,31.77353],[35.18366,31.77353],[35.18365,31.77352],[35.18364,31.77352],[35.18363,31.77351],[35.18362,31.7735],[35.18362,31.77349],[35.18362,31.77348],[35.18361,31.77347],[35.18362,31.77346],[35.18376,31.77323],[35.18367,31.77319],[35.18374,31.77309],[35.18382,31.77297],[35.18393,31.7728],[35.18409,31.77255],[35.18407,31.77253],[35.18391,31.77245],[35.18376,31.77251],[35.18364,31.77262],[35.18353,31.77258],[35.18347,31.77257],[35.18339,31.77268],[35.18334,31.77277],[35.18316,31.77305]]]},"properties":{"kind":"pinui_binui","id":469671,"address":"זאב חקלאי 2","status":"מיסוי","tier":"planning","units_existing":64,"units_added":176,"units_planned":240,"buildings_covered":8,"placed":true}},{"type":"Feature","geometry":{"type":"Polygon","coordinates":[[[35.18464,31.77895],[35.18462,31.77896],[35.18442,31.77909],[35.18469,31.77917],[35.18497,31.77925],[35.1851,31.77929],[35.18517,31.77931],[35.18525,31.77934],[35.18546,31.77921],[35.18537,31.77911],[35.18534,31.77907],[35.18531,31.77903],[35.18529,31.77901],[35.18524,31.77895],[35.18484,31.77883],[35.18476,31.77888],[35.18468,31.77893],[35.18464,31.77895]]]},"properties":{"kind":"pinui_binui","id":469692,"address":"הארזים 15-19","status":"מיסוי","tier":"planning","units_existing":60,"units_added":100,"units_planned":160,"buildings_covered":3,"placed":true}},{"type":"Feature","geometry":{"type":"Polygon","coordinates":[[[35.18825,31.7809],[35.18837,31.78085],[35.18825,31.78069],[35.18816,31.78074],[35.18803,31.78056],[35.18793,31.78042],[35.18777,31.7805],[35.18775,31.78047],[35.18773,31.78044],[35.18766,31.78047],[35.18764,31.78044],[35.1875,31.78049],[35.18763,31.78069],[35.18774,31.78073],[35.18792,31.78079],[35.18793,31.78078],[35.18804,31.78082],[35.18825,31.7809]]]},"properties":{"kind":"pinui_binui","id":469706,"address":"הרצל 98-100","status":"מיסוי","tier":"planning","units_existing":34,"units_added":72,"units_planned":106,"buildings_covered":4,"placed":true}},{"type":"Feature","geometry":{"type":"Polygon","coordinates":[[[35.18732,31.77827],[35.18732,31.77827],[35.18731,31.77827],[35.1873,31.77826],[35.18695,31.77835],[35.18695,31.77836],[35.18691,31.77838],[35.1869,31.77839],[35.1869,31.77839],[35.18688,31.77841],[35.18687,31.77842],[35.18686,31.77844],[35.18686,31.77845],[35.18685,31.77847],[35.18685,31.77848],[35.18686,31.77849],[35.18686,31.77851],[35.18687,31.77852],[35.18687,31.77853],[35.18689,31.77855],[35.18693,31.77859],[35.18707,31.77875],[35.18716,31.77886],[35.18719,31.77889],[35.18749,31.77876],[35.18749,31.77876],[35.18735,31.77831],[35.18734,31.7783],[35.18734,31.77829],[35.18734,31.77828],[35.18732,31.77827]]]},"properties":{"kind":"pinui_binui","id":469743,"address":"הרצל 123 המייסדים","status":"מיסוי","tier":"planning","units_existing":33,"units_added":71,"units_planned":104,"buildings_covered":4,"placed":true}},{"type":"Feature","geometry":{"type":"Polygon","coordinates":[[[35.19065,31.78339],[35.19065,31.78339],[35.19082,31.7834],[35.19082,31.78336],[35.19082,31.78333],[35.19082,31.78333],[35.19088,31.78332],[35.19117,31.78331],[35.19117,31.78331],[35.19117,31.78331],[35.19129,31.78329],[35.19138,31.78326],[35.19139,31.78326],[35.19146,31.78324],[35.19127,31.78301],[35.19126,31.78287],[35.19087,31.78288],[35.19092,31.78296],[35.19091,31.78296],[35.19074,31.78322],[35.19075,31.78322],[35.19065,31.78339]]]},"properties":{"kind":"pinui_binui","id":469748,"address":"שד' הרצל 72 ,דגניה 1,3,5","status":"מיסוי","tier":"planning","units_existing":40,"units_added":90,"units_planned":130,"buildings_covered":4,"placed":true}},{"type":"Feature","geometry":{"type":"Polygon","coordinates":[[[35.18621,31.76858],[35.1861,31.76857],[35.18603,31.76869],[35.186,31.76874],[35.18595,31.76883],[35.18591,31.7689],[35.18589,31.76893],[35.18586,31.76897],[35.18604,31.76907],[35.18612,31.76913],[35.18637,31.7693],[35.18642,31.76923],[35.1865,31.76912],[35.1865,31.76912],[35.18676,31.76872],[35.18671,31.7687],[35.18651,31.76863],[35.18647,31.76862],[35.18631,31.7686],[35.18624,31.76859],[35.18621,31.76858]]]},"properties":{"kind":"pinui_binui","id":469750,"address":"עוזיאל 47-51, א.י. שחראי 18-14","status":"מיסוי","tier":"planning","units_existing":54,"units_added":205,"units_planned":259,"buildings_covered":1,"placed":true}},{"type":"Feature","geometry":{"type":"Polygon","coordinates":[[[35.19747,31.78566],[35.19744,31.78568],[35.19743,31.78569],[35.19739,31.78572],[35.19739,31.78572],[35.19724,31.7857],[35.19724,31.7857],[35.19708,31.78568],[35.19695,31.78568],[35.19694,31.78568],[35.19693,31.78568],[35.19688,31.78567],[35.19675,31.78564],[35.19665,31.78563],[35.19658,31.78561],[35.19655,31.78561],[35.19652,31.7856],[35.1965,31.7856],[35.19649,31.7856],[35.19646,31.78561],[35.19645,31.78561],[35.19644,31.78561],[35.19642,31.78561],[35.19642,31.78561],[35.19641,31.78561],[35.19641,31.78561],[35.19639,31.78556],[35.19639,31.78556],[35.19639,31.78556],[35.19637,31.78556],[35.19636,31.78557],[35.19633,31.78557],[35.19628,31.78558],[35.19625,31.78559],[35.19626,31.78564],[35.19627,31.78566],[35.1963,31.78568],[35.19632,31.7857],[35.19635,31.7857],[35.19643,31.7857],[35.19649,31.7857],[35.19651,31.7857],[35.19655,31.7857],[35.19664,31.78571],[35.19669,31.78572],[35.19669,31.78572],[35.19675,31.78573],[35.19683,31.78574],[35.19692,31.78575],[35.19699,31.78575],[35.19705,31.78576],[35.19709,31.78576],[35.19712,31.78576],[35.19713,31.78577],[35.19716,31.78577],[35.19722,31.78578],[35.19726,31.78579],[35.19734,31.7858],[35.19742,31.78581],[35.19746,31.78581],[35.19759,31.78582],[35.19767,31.78582],[35.19783,31.78582],[35.1976,31.78557],[35.19751,31.78563],[35.1975,31.78564],[35.19747,31.78566]]]},"properties":{"kind":"pinui_binui","id":469777,"address":"המקשר","status":"רשויות","tier":"planning","units_existing":34,"units_added":138,"units_planned":172,"buildings_covered":0,"placed":false}},{"type":"Feature","geometry":{"type":"Polygon","coordinates":[[[35.17919,31.76906],[35.17916,31.7692],[35.17914,31.76928],[35.17907,31.76926],[35.17906,31.76931],[35.17905,31.76934],[35.17902,31.76943],[35.1791,31.76943],[35.1791,31.76943],[35.1791,31.76943],[35.17923,31.76944],[35.17932,31.76946],[35.17932,31.76946],[35.17937,31.76947],[35.1795,31.76949],[35.17954,31.7695],[35.17975,31.76956],[35.17995,31.7696],[35.18008,31.76963],[35.18014,31.76964],[35.18037,31.76968],[35.18049,31.7697],[35.18058,31.76974],[35.18065,31.76978],[35.18074,31.76984],[35.18078,31.76987],[35.1808,31.76988],[35.18082,31.7699],[35.18089,31.76996],[35.18094,31.77002],[35.18105,31.76995],[35.18101,31.7699],[35.18092,31.76981],[35.18087,31.76975],[35.18078,31.76966],[35.18074,31.76963],[35.18066,31.76956],[35.18055,31.76947],[35.18045,31.76941],[35.18038,31.76936],[35.1801,31.76919],[35.17996,31.76909],[35.17985,31.76903],[35.17973,31.76896],[35.17967,31.76894],[35.17959,31.76891],[35.17927,31.76882],[35.17925,31.76885],[35.17924,31.76888],[35.17919,31.76906]]]},"properties":{"kind":"pinui_binui","id":469779,"address":"מתחם אפשטיין","status":"מיסוי","tier":"planning","units_existing":30,"units_added":210,"units_planned":240,"buildings_covered":3,"placed":true}},{"type":"Feature","geometry":{"type":"Polygon","coordinates":[[[35.19034,31.78337],[35.19037,31.78337],[35.19038,31.78337],[35.19039,31.78332],[35.19043,31.78321],[35.19051,31.78309],[35.19074,31.78322],[35.19074,31.78322],[35.19074,31.78322],[35.19091,31.78296],[35.19086,31.78288],[35.19083,31.78284],[35.19075,31.78284],[35.19067,31.78285],[35.19066,31.78285],[35.19065,31.78285],[35.19064,31.78288],[35.19032,31.78288],[35.19011,31.7832],[35.19004,31.78335],[35.19018,31.78336],[35.19034,31.78337]]]},"properties":{"kind":"pinui_binui","id":469797,"address":"שדרות הרצל 74-76, דגניה 7","status":"מיסוי","tier":"planning","units_existing":38,"units_added":99,"units_planned":141,"buildings_covered":2,"placed":true}},{"type":"Feature","geometry":{"type":"Polygon","coordinates":[[[35.19747,31.78566],[35.19744,31.78568],[35.19743,31.78569],[35.19739,31.78572],[35.19739,31.78572],[35.19724,31.7857],[35.19724,31.7857],[35.19708,31.78568],[35.19695,31.78568],[35.19694,31.78568],[35.19693,31.78568],[35.19688,31.78567],[35.19675,31.78564],[35.19665,31.78563],[35.19658,31.78561],[35.19655,31.78561],[35.19652,31.7856],[35.1965,31.7856],[35.19649,31.7856],[35.19646,31.78561],[35.19645,31.78561],[35.19644,31.78561],[35.19642,31.78561],[35.19642,31.78561],[35.19641,31.78561],[35.19641,31.78561],[35.19639,31.78556],[35.19639,31.78556],[35.19639,31.78556],[35.19637,31.78556],[35.19636,31.78557],[35.19633,31.78557],[35.19628,31.78558],[35.19625,31.78559],[35.19626,31.78564],[35.19627,31.78566],[35.1963,31.78568],[35.19632,31.7857],[35.19635,31.7857],[35.19643,31.7857],[35.19649,31.7857],[35.19651,31.7857],[35.19655,31.7857],[35.19664,31.78571],[35.19669,31.78572],[35.19669,31.78572],[35.19675,31.78573],[35.19683,31.78574],[35.19692,31.78575],[35.19699,31.78575],[35.19705,31.78576],[35.19709,31.78576],[35.19712,31.78576],[35.19713,31.78577],[35.19716,31.78577],[35.19722,31.78578],[35.19726,31.78579],[35.19734,31.7858],[35.19742,31.78581],[35.19746,31.78581],[35.19759,31.78582],[35.19767,31.78582],[35.19783,31.78582],[35.1976,31.78557],[35.19751,31.78563],[35.1975,31.78564],[35.19747,31.78566]]]},"properties":{"kind":"pinui_binui","id":469798,"address":"המקשר","status":"רשויות","tier":"planning","units_existing":34,"units_added":94,"units_planned":128,"buildings_covered":0,"placed":false}}]}