{
"type": "FeatureCollection",
"name": "aoi",
"crs": { "type": "name", "properties": { "name": "urn:ogc:def:crs:EPSG::2039" } },
"features": [
{ "type": "Feature", "properties": { "oid_shchuna": 24, "ms_shchuna": 30, "shem_shchuna": "הצפון הישן - החלק הצפוני", "shem_shchuna_rev": "ינופצה קלחה - ןשיה ןופצה", "ms_stat_areas": null, "date_import": "18/11/2024 00:59:04", "Shape_Length": 8939.4377824801049, "Shape_Area": 1803888.6651356064 }, "geometry": { "type": "Polygon", "coordinates": [ [ [ 179552.229, 665853.300000000046566 ], [ 179551.89000000001397, 665851.680000000051223 ], [ 179550.641, 665845.75 ], [ 179543.18, 665803.24800000002142 ], [ 179539.231000000028871, 665780.75 ], [ 179535.770000000018626, 665760.941 ], [ 179526.163999999989755, 665706.201 ], [ 179524.26, 665695.351000000024214 ], [ 179518.509000000020023, 665662.603 ], [ 179512.85999999998603, 665630.439999999944121 ], [ 179512.776000000012573, 665629.709000000031665 ], [ 179511.971000000019558, 665622.621000000042841 ], [ 179510.69, 665611.25 ], [ 179508.827999999979511, 665557.13 ], [ 179508.310999999986961, 665542.12 ], [ 179508.19, 665510.751000000047497 ], [ 179508.19, 665449.12 ], [ 179506.840000000025611, 665437.5 ], [ 179505.270000000018626, 665423.881000000052154 ], [ 179505.031000000017229, 665409.689999999944121 ], [ 179504.950000000011642, 665404.74 ], [ 179389.86099999997532, 665405.400999999954365 ], [ 179387.3944, 665405.419400000013411 ], [ 179387.310999999986961, 665405.42000000004191 ], [ 179387.341000000014901, 665412.560999999986961 ], [ 179385.44, 665431.680999999982305 ], [ 179385.2329, 665433.734199999948032 ], [ 179385.200000000011642, 665434.060000000055879 ], [ 179373.050999999977648, 665434.38 ], [ 179365.990999999979977, 665434.560000000055879 ], [ 179356.201, 665434.810000000055879 ], [ 179343.920999999972992, 665437.89000000001397 ], [ 179340.26, 665439.17000000004191 ], [ 179325.050999999977648, 665447.121000000042841 ], [ 179324.663999999989755, 665447.400000000023283 ], [ 179303.471000000019558, 665462.689999999944121 ], [ 179297.24800000002142, 665467.547000000020489 ], [ 179277.93, 665482.631000000052154 ], [ 179277.647999999986496, 665482.851000000024214 ], [ 179262.65500000002794, 665494.562999999965541 ], [ 179243.050999999977648, 665509.88 ], [ 179219.004000000015367, 665527.67000000004191 ], [ 179217.841000000014901, 665528.530999999959022 ], [ 179210.60999999998603, 665533.88 ], [ 179196.401000000012573, 665542.01 ], [ 179193.591000000014901, 665543.621000000042841 ], [ 179190.39000000001397, 665545.481000000028871 ], [ 179186.38, 665547.809 ], [ 179132.479999999981374, 665582.310000000055879 ], [ 179085.080000000016298, 665614.189999999944121 ], [ 179081.49, 665616.5 ], [ 179033.06, 665647.611000000033528 ], [ 179028.552000000025146, 665650.5 ], [ 179026.159999999974389, 665652.050000000046566 ], [ 179021.5, 665655.059 ], [ 179007.150000000023283, 665664.596000000019558 ], [ 178987.35999999998603, 665677.75 ], [ 178963.56, 665693.560000000055879 ], [ 178960.365, 665695.378999999957159 ], [ 178934.36099999997532, 665710.189999999944121 ], [ 178901.467, 665725.655999999959022 ], [ 178882.781000000017229, 665734.439999999944121 ], [ 178857.229999999981374, 665744.309 ], [ 178848.461000000010245, 665746.75 ], [ 178845.531000000017229, 665747.560000000055879 ], [ 178830.411000000021886, 665751.691 ], [ 178780.81, 665768.040000000037253 ], [ 178779.770000000018626, 665768.38 ], [ 178724.43, 665786.550000000046566 ], [ 178684.229999999981374, 665799.75 ], [ 178668.479999999981374, 665804.121000000042841 ], [ 178659.56, 665806.62 ], [ 178625.39000000001397, 665818.621000000042841 ], [ 178576.28000000002794, 665834.189999999944121 ], [ 178546.085000000020955, 665843.712999999988824 ], [ 178477.831, 665865.24 ], [ 178471.772, 665867.12 ], [ 178469.532, 665867.807999999960884 ], [ 178469.358, 665867.841999999945983 ], [ 178459.46750000002794, 665869.021799999987707 ], [ 178458.787000000011176, 665869.103 ], [ 178450.827999999979511, 665863.398999999975786 ], [ 178444.726000000024214, 665854.910000000032596 ], [ 178429.484, 665818.454000000027008 ], [ 178419.26500000001397, 665797.741000000038184 ], [ 178394.419999999983702, 665747.38 ], [ 178378.308000000019092, 665697.983 ], [ 178375.204000000027008, 665688.773000000044703 ], [ 178368.474999999976717, 665668.814000000013039 ], [ 178367.155399999988731, 665664.346299999975599 ], [ 178360.57, 665642.050999999977648 ], [ 178356.294500000018161, 665632.137800000025891 ], [ 178342.49800000002142, 665600.148999999975786 ], [ 178333.2009, 665579.243400000035763 ], [ 178333.093999999982771, 665579.003000000026077 ], [ 178260.65769999998156, 665604.3552 ], [ 178260.180999999982305, 665604.522 ], [ 178240.2267, 665594.020400000037625 ], [ 178239.960000000020955, 665593.88 ], [ 178235.878000000026077, 665594.966999999945983 ], [ 178188.164800000027753, 665607.669499999959953 ], [ 178183.490800000028685, 665632.826 ], [ 178183.589800000016112, 665632.810999999986961 ], [ 178173.4508, 665654.772 ], [ 178157.881799999973737, 665672.856999999959953 ], [ 178141.451799999980722, 665684.04500000004191 ], [ 178124.131799999973737, 665691.810999999986961 ], [ 178126.935799999977462, 665691.778999999980442 ], [ 178148.90480000001844, 665693.12300000002142 ], [ 178172.076799999980722, 665692.37300000002142 ], [ 178190.9128, 665701.076 ], [ 178210.2328, 665712.153999999980442 ], [ 178224.326799999980722, 665721.483 ], [ 178231.7648, 665729.733 ], [ 178242.4888, 665744.464000000036322 ], [ 178253.1288, 665761.464000000036322 ], [ 178255.256799999973737, 665779.653999999980442 ], [ 178259.9128, 665788.716999999945983 ], [ 178264.685799999977462, 665792.981999999959953 ], [ 178259.475800000014715, 665795.62300000002142 ], [ 178162.967799999983981, 665836.403999999980442 ], [ 178152.771799999987707, 665841.528999999980442 ], [ 178118.77980000001844, 665865.226999999955297 ], [ 178113.006799999973737, 665872.12300000002142 ], [ 178102.1628, 665888.966999999945983 ], [ 178099.65480000001844, 665892.87300000002142 ], [ 178094.1238, 665905.106999999959953 ], [ 178090.5378, 665912.826 ], [ 178085.865800000028685, 665926.935999999986961 ], [ 178083.615800000028685, 665942.201 ], [ 178082.490800000028685, 665954.903999999980442 ], [ 178081.90480000001844, 665966.638999999966472 ], [ 178081.6788, 665973.935999999986961 ], [ 178085.3188, 665999.67000000004191 ], [ 178085.506799999973737, 666001.013999999966472 ], [ 178086.1238, 666007.951 ], [ 178112.285800000012387, 666120.152 ], [ 178114.082799999974668, 666135.900999999954365 ], [ 178114.111800000013318, 666143.836000000010245 ], [ 178114.472799999988638, 666148.277 ], [ 178115.0198, 666150.19129999994766 ], [ 178115.097799999988638, 666150.464000000036322 ], [ 178116.926800000015646, 666153.837999999988824 ], [ 178118.535800000012387, 666155.400999999954365 ], [ 178119.9888, 666156.277 ], [ 178121.849800000025425, 666156.841000000014901 ], [ 178123.958800000022165, 666157.403999999980442 ], [ 178125.8028, 666157.966000000014901 ], [ 178128.989799999981187, 666158.466000000014901 ], [ 178130.8028, 666158.716000000014901 ], [ 178134.1458, 666157.966000000014901 ], [ 178135.973799999977928, 666157.591000000014901 ], [ 178137.7868, 666156.591000000014901 ], [ 178139.740800000028685, 666154.968 ], [ 178140.794799999974202, 666153.101000000024214 ], [ 178141.7168, 666150.851000000024214 ], [ 178143.3898, 666147.653999999980442 ], [ 178143.384199999971315, 666144.1117 ], [ 178143.381799999973737, 666142.591999999945983 ], [ 178133.740800000028685, 666129.341999999945983 ], [ 178107.811800000024959, 665999.663999999989755 ], [ 178102.826799999980722, 665974.726999999955297 ], [ 178103.5148, 665951.92000000004191 ], [ 178112.4288, 665915.185999999986961 ], [ 178120.756799999973737, 665898.42000000004191 ], [ 178120.8798, 665898.277 ], [ 178131.733799999987241, 665885.665000000037253 ], [ 178155.1398, 665865.185999999986961 ], [ 178164.006799999973737, 665860.576 ], [ 178207.082799999974668, 665838.089000000036322 ], [ 178219.160199999983888, 665855.107899999944493 ], [ 178226.809799999988172, 665852.812999999965541 ], [ 178230.115800000028685, 665868.459000000031665 ], [ 178228.9398, 665868.800000000046566 ], [ 178228.924, 665868.808500000042841 ], [ 178235.9988, 665878.67000000004191 ], [ 178238.6708000000217, 665891.201 ], [ 178239.3578, 665894.403999999980442 ], [ 178246.459800000011455, 665927.685999999986961 ], [ 178247.1938, 665931.153999999980442 ], [ 178254.365800000028685, 665964.74800000002142 ], [ 178254.7648, 665966.62300000002142 ], [ 178259.9288, 665990.826 ], [ 178260.52980000001844, 665993.49800000002142 ], [ 178265.5538, 666017.87300000002142 ], [ 178266.092799999983981, 666019.701 ], [ 178269.225800000014715, 666034.67000000004191 ], [ 178268.5458000000217, 666035.685999999986961 ], [ 178266.836300000024494, 666039.837599999969825 ], [ 178270.361800000013318, 666051.9046 ], [ 178257.450100000016391, 666056.349599999957718 ], [ 178199.876600000017788, 666066.086299999966286 ], [ 178182.488399999972899, 666070.451200000010431 ], [ 178177.27980000001844, 666070.701 ], [ 178171.967799999983981, 666072.12300000002142 ], [ 178167.646799999987707, 666077.903999999980442 ], [ 178167.646799999987707, 666082.716999999945983 ], [ 178169.560799999977462, 666087.513999999966472 ], [ 178174.8738, 666091.826 ], [ 178179.1938, 666091.826 ], [ 178183.9683, 666089.712999999988824 ], [ 178192.186800000024959, 666086.076 ], [ 178338.310799999977462, 666062.04500000004191 ], [ 178347.3468, 666062.043300000019372 ], [ 178352.6398, 666066.128000000026077 ], [ 178354.701799999980722, 666068.935999999986961 ], [ 178356.723799999977928, 666071.464000000036322 ], [ 178358.459800000011455, 666074.37300000002142 ], [ 178360.2648, 666077.138999999966472 ], [ 178362.021799999987707, 666079.935999999986961 ], [ 178363.035800000012387, 666081.277 ], [ 178363.6138, 666082.275999999954365 ], [ 178364.191799999971408, 666083.339000000036322 ], [ 178364.7388, 666084.339000000036322 ], [ 178365.268800000019837, 666085.400999999954365 ], [ 178365.7698, 666086.464000000036322 ], [ 178366.2698, 666087.589000000036322 ], [ 178366.7388, 666088.652 ], [ 178370.191799999971408, 666096.714000000036322 ], [ 178374.3948, 666106.775999999954365 ], [ 178376.2548, 666111.839000000036322 ], [ 178378.082799999974668, 666116.900999999954365 ], [ 178381.7388, 666127.089000000036322 ], [ 178385.160800000012387, 666136.839000000036322 ], [ 178388.5198, 666146.589000000036322 ], [ 178389.6138, 666149.839000000036322 ], [ 178390.6298, 666153.089000000036322 ], [ 178391.801800000015646, 666157.214000000036322 ], [ 178392.3948, 666159.464000000036322 ], [ 178394.2698, 666167.089000000036322 ], [ 178396.066799999971408, 666174.775999999954365 ], [ 178397.3638, 666180.402 ], [ 178398.6138, 666186.089000000036322 ], [ 178399.660800000012387, 666190.900999999954365 ], [ 178400.676800000015646, 666195.714000000036322 ], [ 178402.6448, 666205.964000000036322 ], [ 178403.4888, 666210.902 ], [ 178404.2698, 666215.900999999954365 ], [ 178404.6138, 666218.525999999954365 ], [ 178404.801800000015646, 666220.214000000036322 ], [ 178404.9558, 666221.898000000044703 ], [ 178405.0808, 666223.648999999975786 ], [ 178405.7548, 666232.089000000036322 ], [ 178406.348799999977928, 666237.839000000036322 ], [ 178406.597799999988638, 666239.964000000036322 ], [ 178406.8798, 666242.025999999954365 ], [ 178407.191799999971408, 666244.089000000036322 ], [ 178407.551800000015646, 666246.150999999954365 ], [ 178407.941799999971408, 666248.214000000036322 ], [ 178408.3798, 666250.277 ], [ 178408.832799999974668, 666252.277 ], [ 178409.5048, 666255.027 ], [ 178409.7548, 666256.152 ], [ 178409.957799999974668, 666257.277 ], [ 178410.1138, 666258.464000000036322 ], [ 178410.234799999976531, 666259.65300000004936 ], [ 178410.326799999980722, 666260.775000000023283 ], [ 178410.3578, 666261.962999999988824 ], [ 178410.3738, 666263.150000000023283 ], [ 178410.310799999977462, 666265.275999999954365 ], [ 178410.2328, 666267.025000000023283 ], [ 178410.1238, 666268.712999999988824 ], [ 178409.9828, 666270.400999999954365 ], [ 178409.3418, 666278.212999999988824 ], [ 178408.8418, 666286.087999999988824 ], [ 178408.451799999980722, 666295.025000000023283 ], [ 178408.060799999977462, 666302.587999999988824 ], [ 178407.9828, 666303.900000000023283 ], [ 178407.952899999974761, 666304.561699999962002 ], [ 178407.9208000000217, 666305.275999999954365 ], [ 178407.810799999977462, 666307.150999999954365 ], [ 178407.5458000000217, 666308.337999999988824 ], [ 178407.2958000000217, 666309.525999999954365 ], [ 178404.6708000000217, 666318.712999999988824 ], [ 178401.951799999980722, 666327.962999999988824 ], [ 178400.138800000015181, 666333.962999999988824 ], [ 178398.310799999977462, 666339.962999999988824 ], [ 178397.3578, 666343.025999999954365 ], [ 178396.388800000015181, 666346.087999999988824 ], [ 178395.3418, 666349.212999999988824 ], [ 178394.685799999977462, 666351.025999999954365 ], [ 178393.9988, 666352.837999999988824 ], [ 178391.5458000000217, 666358.900999999954365 ], [ 178389.060799999977462, 666364.837999999988824 ], [ 178387.0918, 666369.150999999954365 ], [ 178386.013800000015181, 666371.400999999954365 ], [ 178384.90480000001844, 666373.587999999988824 ], [ 178383.7488, 666375.775000000023283 ], [ 178383.706, 666375.853800000040792 ], [ 178382.560799999977462, 666377.962999999988824 ], [ 178381.4828, 666379.775000000023283 ], [ 178380.90480000001844, 666380.712999999988824 ], [ 178380.326799999980722, 666381.587999999988824 ], [ 178379.7168, 666382.525999999954365 ], [ 178379.092799999983981, 666383.400999999954365 ], [ 178378.467799999983981, 666384.275999999954365 ], [ 178377.810799999977462, 666385.150000000023283 ], [ 178377.744799999985844, 666385.231999999959953 ], [ 178377.7008, 666385.287999999942258 ], [ 178375.1398, 666388.464000000036322 ], [ 178375.02980000001844, 666388.601999999955297 ], [ 178370.15480000001844, 666394.413999999989755 ], [ 178365.27980000001844, 666400.226999999955297 ], [ 178363.483799999987241, 666402.351999999955297 ], [ 178361.6708000000217, 666404.413999999989755 ], [ 178358.3578, 666408.101999999955297 ], [ 178355.02980000001844, 666411.726999999955297 ], [ 178326.8738, 666419.290000000037253 ], [ 178290.7958000000217, 666429.288999999989755 ], [ 178261.717799999983981, 666431.288999999989755 ], [ 178250.718799999973271, 666418.290000000037253 ], [ 178237.6708000000217, 666374.185999999986961 ], [ 178231.6708000000217, 666344.106999999959953 ], [ 178228.631799999973737, 666338.091999999945983 ], [ 178221.631799999973737, 666339.108 ], [ 178217.631799999973737, 666344.108 ], [ 178221.631799999973737, 666362.138999999966472 ], [ 178224.8678, 666373.262699999962933 ], [ 178228.631799999973737, 666386.201 ], [ 178238.785800000012387, 666419.150999999954365 ], [ 178248.820499999972526, 666449.247500000055879 ], [ 178259.832799999974668, 666482.275999999954365 ], [ 178270.8638, 666511.339000000036322 ], [ 178280.864799999981187, 666537.400999999954365 ], [ 178293.910800000012387, 666554.462999999988824 ], [ 178298.902799999981653, 666558.442999999970198 ], [ 178305.8358, 666553.479999999981374 ], [ 178306.8248, 666548.537000000011176 ], [ 178291.7958000000217, 666522.476999999955297 ], [ 178274.7488, 666489.415000000037253 ], [ 178259.717799999983981, 666445.351999999955297 ], [ 178259.828800000017509, 666445.189000000013039 ], [ 178265.816799999971408, 666437.177999999956228 ], [ 178270.8638, 666438.162000000011176 ], [ 178273.8638, 666446.192999999970198 ], [ 178278.8638, 666448.194000000017695 ], [ 178285.910800000012387, 666449.214000000036322 ], [ 178299.8948, 666449.214000000036322 ], [ 178313.566799999971408, 666447.400999999954365 ], [ 178316.816799999971408, 666447.027 ], [ 178319.098799999977928, 666446.775999999954365 ], [ 178321.3798, 666446.652 ], [ 178323.676800000015646, 666446.464000000036322 ], [ 178325.973799999977928, 666446.402 ], [ 178328.2698, 666446.339000000036322 ], [ 178330.441799999971408, 666446.339000000036322 ], [ 178332.1448, 666446.402 ], [ 178333.832799999974668, 666446.525999999954365 ], [ 178335.5198, 666446.714000000036322 ], [ 178337.191799999971408, 666446.964000000036322 ], [ 178343.582799999974668, 666448.150999999954365 ], [ 178348.722799999988638, 666449.150999999954365 ], [ 178350.3798, 666449.464000000036322 ], [ 178351.957799999974668, 666449.777 ], [ 178353.5198, 666450.027 ], [ 178355.098799999977928, 666450.275999999954365 ], [ 178358.316799999971408, 666450.652 ], [ 178360.1298, 666450.839000000036322 ], [ 178361.941799999971408, 666450.964000000036322 ], [ 178363.7698, 666451.089000000036322 ], [ 178365.582799999974668, 666451.152 ], [ 178368.3948, 666451.275999999954365 ], [ 178370.102599999983795, 666451.375 ], [ 178370.551800000015646, 666451.400999999954365 ], [ 178372.723799999977928, 666451.589000000036322 ], [ 178374.39279999997234, 666451.78249999997206 ], [ 178374.8798, 666451.839000000036322 ], [ 178377.0198, 666452.089000000036322 ], [ 178379.691799999971408, 666452.464000000036322 ], [ 178381.7698, 666452.775999999954365 ], [ 178383.847799999988638, 666453.152 ], [ 178385.910800000012387, 666453.527 ], [ 178387.957799999974668, 666453.964000000036322 ], [ 178390.0048, 666454.464000000036322 ], [ 178392.051800000015646, 666454.964000000036322 ], [ 178394.082799999974668, 666455.527 ], [ 178395.6448, 666455.964000000036322 ], [ 178396.972799999988638, 666456.464000000036322 ], [ 178398.301800000015646, 666456.964000000036322 ], [ 178399.598799999977928, 666457.464000000036322 ], [ 178400.8798, 666458.089000000036322 ], [ 178402.1448, 666458.714000000036322 ], [ 178403.3788, 666459.400999999954365 ], [ 178407.6138, 666461.839000000036322 ], [ 178411.816799999971408, 666464.339000000036322 ], [ 178418.051800000015646, 666468.025999999954365 ], [ 178424.316799999971408, 666471.714000000036322 ], [ 178430.723799999977928, 666475.402 ], [ 178437.160800000012387, 666479.089000000036322 ], [ 178441.098799999977928, 666481.339000000036322 ], [ 178445.0198, 666483.589000000036322 ], [ 178446.676800000015646, 666484.652 ], [ 178447.8638, 666485.464000000036322 ], [ 178449.0198, 666486.277 ], [ 178450.1448, 666487.214000000036322 ], [ 178451.2388, 666488.089000000036322 ], [ 178452.301800000015646, 666489.089000000036322 ], [ 178453.8638, 666490.589000000036322 ], [ 178455.051800000015646, 666491.775999999954365 ], [ 178456.222799999988638, 666493.025999999954365 ], [ 178457.3798, 666494.214000000036322 ], [ 178458.5048, 666495.525999999954365 ], [ 178459.6138, 666496.777 ], [ 178460.707799999974668, 666498.089000000036322 ], [ 178461.7698, 666499.402 ], [ 178466.691799999971408, 666505.714000000036322 ], [ 178470.457799999974668, 666510.777 ], [ 178472.785800000012387, 666514.089000000036322 ], [ 178474.223799999977928, 666516.214000000036322 ], [ 178475.6138, 666518.339000000036322 ], [ 178477.959800000011455, 666522.356999999959953 ], [ 178480.4288, 666526.231999999959953 ], [ 178482.90480000001844, 666530.106999999959953 ], [ 178485.381799999973737, 666533.983 ], [ 178489.3578, 666540.201 ], [ 178490.004299999971408, 666541.211499999975786 ], [ 178499.3258, 666551.312999999965541 ], [ 178520.496800000022631, 666601.562999999965541 ], [ 178510.8921, 666644.100499999942258 ], [ 178510.52980000001844, 666646.025000000023283 ], [ 178510.076799999980722, 666648.712999999988824 ], [ 178509.459800000011455, 666651.79500000004191 ], [ 178508.990800000028685, 666654.076 ], [ 178508.646799999987707, 666655.983 ], [ 178508.396799999987707, 666656.99800000002142 ], [ 178507.6628, 666658.528999999980442 ], [ 178507.603, 666658.667600000044331 ], [ 178501.9818, 666683.562999999965541 ], [ 178475.815899999986868, 666711.91890000004787 ], [ 178475.256799999973737, 666712.966999999945983 ], [ 178475.14279999997234, 666713.157 ], [ 178474.076799999980722, 666714.49800000002142 ], [ 178473.095800000010058, 666716.054 ], [ 178472.9658, 666716.268000000040047 ], [ 178471.4988, 666718.003000000026077 ], [ 178470.062800000014249, 666719.978 ], [ 178468.600800000014715, 666721.856999999959953 ], [ 178467.521799999987707, 666723.403999999980442 ], [ 178467.013800000015181, 666724.113999999943189 ], [ 178465.763800000015181, 666725.837999999988824 ], [ 178465.65480000001844, 666725.981999999959953 ], [ 178463.9998, 666728.025999999954365 ], [ 178463.8898, 666728.163999999989755 ], [ 178462.608799999987241, 666729.663999999989755 ], [ 178460.233799999987241, 666732.476999999955297 ], [ 178458.5458000000217, 666734.476999999955297 ], [ 178456.811800000024959, 666736.540000000037253 ], [ 178455.2488, 666738.351999999955297 ], [ 178453.7488, 666739.976999999955297 ], [ 178451.951799999980722, 666741.915000000037253 ], [ 178450.40480000001844, 666743.288999999989755 ], [ 178448.451799999980722, 666745.351999999955297 ], [ 178446.342799999983981, 666747.476999999955297 ], [ 178444.592799999983981, 666749.540000000037253 ], [ 178443.6708000000217, 666750.476999999955297 ], [ 178442.0148, 666751.601999999955297 ], [ 178439.6238, 666753.101999999955297 ], [ 178437.6078, 666754.415000000037253 ], [ 178434.90480000001844, 666756.101999999955297 ], [ 178432.608799999987241, 666757.476999999955297 ], [ 178429.6238, 666759.415000000037253 ], [ 178427.858799999987241, 666760.538999999989755 ], [ 178426.5458000000217, 666761.538999999989755 ], [ 178424.811800000024959, 666762.976999999955297 ], [ 178422.15480000001844, 666765.601999999955297 ], [ 178419.186800000024959, 666768.290000000037253 ], [ 178416.15480000001844, 666771.040000000037253 ], [ 178413.467799999983981, 666773.351999999955297 ], [ 178410.076799999980722, 666776.101999999955297 ], [ 178406.6708000000217, 666778.913999999989755 ], [ 178404.2488, 666780.790000000037253 ], [ 178401.65480000001844, 666782.976999999955297 ], [ 178399.7958000000217, 666784.415000000037253 ], [ 178398.5798, 666785.34499999997206 ], [ 178396.9168, 666787.834999999962747 ], [ 178396.820799999986775, 666787.983 ], [ 178395.430799999972805, 666790.147 ], [ 178395.337799999979325, 666790.295999999972992 ], [ 178394.305799999972805, 666791.959999999962747 ], [ 178394.2108, 666792.108 ], [ 178393.1668, 666793.709999999962747 ], [ 178393.071799999976065, 666793.858 ], [ 178392.447800000023562, 666794.834999999962747 ], [ 178392.343799999973271, 666794.976999999955297 ], [ 178393.561800000024959, 666796.351999999955297 ], [ 178394.146799999987707, 666797.518999999971129 ], [ 178394.105800000019372, 666799.626000000047497 ], [ 178394.100800000014715, 666799.910000000032596 ], [ 178383.5458000000217, 666784.726999999955297 ], [ 178379.4988, 666772.476999999955297 ], [ 178374.2648, 666755.476999999955297 ], [ 178369.1398, 666739.165000000037253 ], [ 178364.0148, 666722.788999999989755 ], [ 178362.076799999980722, 666709.665000000037253 ], [ 178360.15480000001844, 666698.288999999989755 ], [ 178359.9438, 666697.121399999945424 ], [ 178359.217799999983981, 666693.101999999955297 ], [ 178358.951799999980722, 666690.976999999955297 ], [ 178358.185799999977462, 666689.351999999955297 ], [ 178357.2488, 666687.476999999955297 ], [ 178356.0148, 666686.038999999989755 ], [ 178354.842799999983981, 666685.038999999989755 ], [ 178354.069499999983236, 666684.529699999955483 ], [ 178353.512800000025891, 666684.162999999942258 ], [ 178351.6238, 666683.538999999989755 ], [ 178349.936800000024959, 666683.288999999989755 ], [ 178348.1708000000217, 666683.413999999989755 ], [ 178346.826799999980722, 666683.601999999955297 ], [ 178345.576799999980722, 666683.851999999955297 ], [ 178344.3898, 666684.351999999955297 ], [ 178343.415800000017043, 666685.354999999981374 ], [ 178342.408799999975599, 666686.836000000010245 ], [ 178341.425800000026356, 666688.427999999956228 ], [ 178340.533799999975599, 666690.273999999975786 ], [ 178338.263800000015181, 666695.191 ], [ 178347.0198, 666732.839000000036322 ], [ 178360.555799999972805, 666775.743999999947846 ], [ 178398.6248, 666885.057099999976344 ], [ 178422.100800000014715, 666952.466999999945983 ], [ 178425.9692, 666961.335100000025705 ], [ 178428.201200000010431, 666966.452000000048429 ], [ 178429.100800000014715, 666968.513999999966472 ], [ 178439.1398, 666973.528999999980442 ], [ 178448.1398, 666971.513999999966472 ], [ 178448.137800000025891, 666962.474000000045635 ], [ 178442.741099999984726, 666955.550500000012107 ], [ 178434.109799999976531, 666944.476999999955297 ], [ 178399.865800000028685, 666848.42000000004191 ], [ 178400.0258, 666848.38 ], [ 178428.5378, 666842.091999999945983 ], [ 178431.8898, 666841.278999999980442 ], [ 178434.8188, 666840.888999999966472 ], [ 178437.3578, 666840.403999999980442 ], [ 178441.1238, 666840.04500000004191 ], [ 178443.521799999987707, 666839.701 ], [ 178447.4288, 666839.608 ], [ 178450.092799999983981, 666839.49800000002142 ], [ 178453.5378, 666839.62300000002142 ], [ 178457.0148, 666839.763999999966472 ], [ 178478.12579999997979, 666840.998999999952503 ], [ 178481.376800000027288, 666841.187000000034459 ], [ 178484.15779999998631, 666841.312000000034459 ], [ 178486.89279999997234, 666841.437999999965541 ], [ 178491.861800000013318, 666841.875 ], [ 178499.860800000024028, 666842.5 ], [ 178506.0648, 666843.0 ], [ 178510.361800000013318, 666843.312999999965541 ], [ 178515.184599999978673, 666843.592199999955483 ], [ 178515.212999999988824, 666843.642600000021048 ], [ 178519.473999999987427, 666843.937000000034459 ], [ 178522.396, 666844.187999999965541 ], [ 178525.052000000025146, 666844.437999999965541 ], [ 178528.396, 666844.687999999965541 ], [ 178531.427000000025146, 666844.687999999965541 ], [ 178533.848999999987427, 666844.75 ], [ 178536.316999999980908, 666844.687999999965541 ], [ 178538.755, 666844.562000000034459 ], [ 178540.677000000025146, 666844.625 ], [ 178542.082999999984168, 666844.5 ], [ 178543.068000000028405, 666844.25 ], [ 178544.177000000025146, 666844.562999999965541 ], [ 178547.146, 666845.562000000034459 ], [ 178549.973999999987427, 666846.437999999965541 ], [ 178552.957999999984168, 666847.5 ], [ 178556.318000000028405, 666848.875 ], [ 178559.146, 666849.937999999965541 ], [ 178561.646, 666850.812999999965541 ], [ 178563.536000000021886, 666851.562999999965541 ], [ 178564.647999999986496, 666852.128000000026077 ], [ 178567.226000000024214, 666853.628000000026077 ], [ 178569.085000000020955, 666854.691 ], [ 178570.943000000028405, 666855.625 ], [ 178573.066999999980908, 666856.625 ], [ 178575.13, 666857.562999999965541 ], [ 178577.021, 666858.437000000034459 ], [ 178579.989, 666860.062000000034459 ], [ 178583.411000000021886, 666861.937000000034459 ], [ 178586.115999999979977, 666863.439999999944121 ], [ 178588.615999999979977, 666865.064999999944121 ], [ 178592.710000000020955, 666868.503000000026077 ], [ 178595.835000000020955, 666871.253000000026077 ], [ 178598.710000000020955, 666873.753000000026077 ], [ 178601.226000000024214, 666875.816 ], [ 178603.585000000020955, 666877.753000000026077 ], [ 178606.022999999986496, 666879.753000000026077 ], [ 178608.881999999983236, 666882.003000000026077 ], [ 178611.288, 666883.503000000026077 ], [ 178613.694000000017695, 666885.378000000026077 ], [ 178617.554, 666888.503000000026077 ], [ 178620.288, 666890.814999999944121 ], [ 178622.195, 666892.816 ], [ 178624.256999999983236, 666894.878000000026077 ], [ 178626.179, 666897.066 ], [ 178628.179, 666899.691 ], [ 178630.085000000020955, 666902.378000000026077 ], [ 178631.476000000024214, 666905.064999999944121 ], [ 178632.631, 666907.441 ], [ 178633.881999999983236, 666910.064999999944121 ], [ 178635.335000000020955, 666913.064999999944121 ], [ 178636.054, 666914.316 ], [ 178637.397, 666916.878000000026077 ], [ 178638.210000000020955, 666919.191 ], [ 178638.945, 666921.689999999944121 ], [ 178639.601000000024214, 666923.691 ], [ 178640.490999999979977, 666927.003000000026077 ], [ 178641.163, 666929.814999999944121 ], [ 178641.679, 666931.878000000026077 ], [ 178642.022999999986496, 666934.503999999957159 ], [ 178642.169999999983702, 666936.136000000056811 ], [ 178642.179, 666936.231999999959953 ], [ 178622.830000000016298, 666942.92000000004191 ], [ 178638.541000000026543, 666991.37300000002142 ], [ 178639.053000000014435, 666992.9523 ], [ 178639.1445, 666993.234599999967031 ], [ 178724.26, 666966.069999999948777 ], [ 178725.60999999998603, 666970.251000000047497 ], [ 178742.38, 667024.25 ], [ 178743.400000000023283, 667035.540000000037253 ], [ 178748.44, 667091.17000000004191 ], [ 178751.080000000016298, 667092.75 ], [ 178780.670999999972992, 667089.121000000042841 ], [ 178788.938000000023749, 667087.635 ], [ 178789.69, 667087.5 ], [ 178805.981000000028871, 667084.560000000055879 ], [ 178875.89000000001397, 667072.0 ], [ 178877.799999999988358, 667077.689999999944121 ], [ 178883.473, 667107.75 ], [ 178884.050999999977648, 667110.810000000055879 ], [ 178889.200000000011642, 667126.12 ], [ 178895.94, 667136.88 ], [ 178903.800999999977648, 667144.621000000042841 ], [ 178917.161000000021886, 667151.62 ], [ 178959.586000000010245, 667169.361000000033528 ], [ 178994.310999999986961, 667183.881000000052154 ], [ 179002.81, 667187.689999999944121 ], [ 179007.231000000028871, 667188.942000000039116 ], [ 179012.36099999997532, 667190.439999999944121 ], [ 179028.441999999980908, 667197.011000000056811 ], [ 179033.78000000002794, 667199.189999999944121 ], [ 179052.979999999981374, 667207.001000000047497 ], [ 179065.161000000021886, 667211.939999999944121 ], [ 179105.770000000018626, 667227.160000000032596 ], [ 179155.800999999977648, 667247.07999999995809 ], [ 179155.809799999988172, 667247.06429999996908 ], [ 179156.979999999981374, 667244.981000000028871 ], [ 179157.299, 667244.40500000002794 ], [ 179157.44, 667244.150000000023283 ], [ 179158.81, 667241.709999999962747 ], [ 179161.270000000018626, 667236.300999999977648 ], [ 179180.661000000021886, 667193.520999999949709 ], [ 179202.691, 667148.57999999995809 ], [ 179240.588999999978114, 667105.400000000023283 ], [ 179241.351000000024214, 667104.89000000001397 ], [ 179293.450000000011642, 667069.910999999963678 ], [ 179304.920999999972992, 667062.221000000019558 ], [ 179305.93, 667060.709999999962747 ], [ 179308.44, 667056.930000000051223 ], [ 179309.221000000019558, 667057.040000000037253 ], [ 179310.419999999983702, 667057.20499999995809 ], [ 179323.208999999973457, 667041.704000000027008 ], [ 179369.153999999980442, 667028.941 ], [ 179435.518999999971129, 667039.150999999954365 ], [ 179484.017, 667051.913999999989755 ], [ 179540.172000000020489, 667072.334000000031665 ], [ 179581.011999999987893, 667072.334000000031665 ], [ 179639.71999999997206, 667077.439000000013039 ], [ 179738.479999999981374, 667082.273000000044703 ], [ 179739.88, 667050.560000000055879 ], [ 179740.771, 667030.621000000042841 ], [ 179742.200000000011642, 666997.941 ], [ 179743.12, 666976.88 ], [ 179742.26500000001397, 666972.163999999989755 ], [ 179736.055999999982305, 666938.199999999953434 ], [ 179731.94, 666915.689999999944121 ], [ 179731.601000000024214, 666913.631000000052154 ], [ 179729.770000000018626, 666902.378999999957159 ], [ 179726.740999999979977, 666884.331 ], [ 179722.859, 666861.202000000048429 ], [ 179717.591000000014901, 666829.810000000055879 ], [ 179715.281000000017229, 666818.62 ], [ 179715.01, 666816.60999999998603 ], [ 179713.94, 666808.751000000047497 ], [ 179710.957999999984168, 666790.32999999995809 ], [ 179705.352000000013504, 666755.685999999986961 ], [ 179702.351000000024214, 666737.143000000040047 ], [ 179699.898999999975786, 666721.991999999969266 ], [ 179695.481000000028871, 666694.689999999944121 ], [ 179691.473999999987427, 666671.890999999945052 ], [ 179691.26400000002468, 666670.692999999970198 ], [ 179684.919, 666634.569999999948777 ], [ 179682.49900000001071, 666620.799 ], [ 179673.39000000001397, 666568.939999999944121 ], [ 179673.12, 666567.069999999948777 ], [ 179672.26500000001397, 666561.118000000016764 ], [ 179670.451, 666548.5 ], [ 179661.781000000017229, 666490.939999999944121 ], [ 179660.479999999981374, 666484.0 ], [ 179658.590000000025611, 666473.25 ], [ 179657.778999999980442, 666468.441 ], [ 179657.430999999982305, 666466.410000000032596 ], [ 179651.50199999997858, 666431.488999999943189 ], [ 179649.243000000016764, 666418.177000000025146 ], [ 179643.450000000011642, 666384.060000000055879 ], [ 179642.19, 666376.63 ], [ 179638.521, 666354.939999999944121 ], [ 179635.270000000018626, 666331.0 ], [ 179633.331, 666320.941 ], [ 179632.5, 666316.520000000018626 ], [ 179631.599999999976717, 666311.691 ], [ 179631.212999999988824, 666309.32999999995809 ], [ 179625.375, 666273.672000000020489 ], [ 179622.223999999987427, 666254.422999999951571 ], [ 179617.606000000028871, 666226.228 ], [ 179611.12, 666186.621000000042841 ], [ 179608.479999999981374, 666172.560000000055879 ], [ 179608.11099999997532, 666170.57999999995809 ], [ 179606.799999999988358, 666163.50199999997858 ], [ 179598.541000000026543, 666116.672999999951571 ], [ 179593.450000000011642, 666087.810999999986961 ], [ 179593.304, 666086.979000000050291 ], [ 179588.055999999982305, 666057.248999999952503 ], [ 179580.090000000025611, 666012.121000000042841 ], [ 179579.740999999979977, 666010.121000000042841 ], [ 179570.99800000002142, 665959.805000000051223 ], [ 179553.700000000011642, 665860.25 ], [ 179552.229, 665853.300000000046566 ] ] ] } }
]
}
